IRIDIUM 150             
1 43257U 18030J   25274.58601037  .00000278  00000+0  92164-4 0  9995
2 43257  86.3984  38.5521 0002160  87.7820 272.3623 14.34218637393094
IRIDIUM 143             
1 43258U 18030K   25274.77628431  .00000568  00000+0  19561-3 0  9995
2 43258  86.3985  38.5561 0002210  86.3250 273.8199 14.34217867393052
IRIDIUM 161             
1 43478U 18047C   25274.77295000  .00000739  00000+0  21378-3 0  9998
2 43478  86.4558 196.4111 0002364  85.9630 274.1841 14.43275204387864
IRIDIUM 152             
1 43479U 18047D   25274.81877370  .00000287  00000+0  95251-4 0  9990
2 43479  86.4029 196.2528 0002274  85.5432 274.6024 14.34219917385454
IRIDIUM 147             
1 43480U 18047E   25274.54604384  .00000700  00000+0  24297-3 0  9996
2 43480  86.4033 196.3674 0002065  83.8677 276.2754 14.34220101385415
IRIDIUM 110             
1 43481U 18047F   25274.76169061  .00000265  00000+0  87423-4 0  9996
2 43481  86.4036 196.3624 0002105  96.9000 263.2435 14.34219475385430
IRIDIUM 162             
1 43482U 18047G   25274.76664406  .00000997  00000+0  29053-3 0  9996
2 43482  86.4576 196.3081 0002536  90.4275 269.7216 14.43269405387852
IRIDIUM 160             
1 43569U 18061A   25274.70752233  .00000556  00000+0  19140-3 0  9995
2 43569  86.4032 164.8315 0002067  89.1874 270.9559 14.34218431376321
